{
    "CCSDS_OMM_VERS": "3.0",
    "COMMENT": "GENERATED VIA SPACE-TRACK.ORG API",
    "CREATION_DATE": "2025-05-23T06:56:36",
    "ORIGINATOR": "18 SPCS",
    "OBJECT_NAME": "COSMOS 2584(GLONASS)",
    "OBJECT_ID": "2025-042A",
    "CENTER_NAME": "EARTH",
    "REF_FRAME": "TEME",
    "TIME_SYSTEM": "UTC",
    "MEAN_ELEMENT_THEORY": "SGP4",
    "EPOCH": "2025-05-23T04:29:50.826912",
    "MEAN_MOTION": "2.13103701",
    "ECCENTRICITY": "0.00067870",
    "INCLINATION": "64.8648",
    "RA_OF_ASC_NODE": "86.0827",
    "ARG_OF_PERICENTER": "233.4154",
    "MEAN_ANOMALY": "126.5019",
    "EPHEMERIS_TYPE": "0",
    "CLASSIFICATION_TYPE": "U",
    "NORAD_CAT_ID": "63130",
    "ELEMENT_SET_NO": "999",
    "REV_AT_EPOCH": "173",
    "BSTAR": "0.00000000000000",
    "MEAN_MOTION_DOT": "0.00000004",
    "MEAN_MOTION_DDOT": "0.0000000000000",
    "SEMIMAJOR_AXIS": "25507.889",
    "PERIOD": "675.727",
    "APOAPSIS": "19147.066",
    "PERIAPSIS": "19112.441",
    "OBJECT_TYPE": "PAYLOAD",
    "RCS_SIZE": "LARGE",
    "COUNTRY_CODE": "CIS",
    "LAUNCH_DATE": "2025-03-02",
    "SITE": "PKMTR",
    "DECAY_DATE": null,
    "FILE": "4736785",
    "GP_ID": "288170175",
    "TLE_LINE0": "0 COSMOS 2584(GLONASS)",
    "TLE_LINE1": "1 63130U 25042A   25143.18739383  .00000004  00000-0  00000+0 0  9996",
    "TLE_LINE2": "2 63130  64.8648  86.0827 0006787 233.4154 126.5019  2.13103701  1735"
}